{
  "type": "FeatureCollection",
  "generator": "overpass-turbo",
  "copyright": "The data included in this document is from www.openstreetmap.org. The data is made available under ODbL.",
  "timestamp": "2026-08-29T21:19:36Z",
  "features": [
    {
      "type": "Feature",
      "properties": {
        "@id": "relation/17822898",
        "name": "Everest South Col",
        "name:en": "Everest South Col",
        "name:zh": "珠穆朗玛峰南坡登顶路线",
        "network": "nwn",
        "route": "hiking",
        "type": "route"
      },
      "geometry": {
        "type": "LineString",
        "coordinates": [
          [
            86.855732,
            28.0029111
          ],
          [
            86.8559352,
            28.0026314
          ],
          [
            86.8561042,
            28.0026727
          ],
          [
            86.8563448,
            28.0026686
          ],
          [
            86.8565475,
            28.0023902
          ],
          [
            86.8566009,
            28.0022482
          ],
          [
            86.8566036,
            28.0021029
          ],
          [
            86.8568212,
            28.001871
          ],
          [
            86.8569619,
            28.0017193
          ],
          [
            86.8571781,
            28.0017454
          ],
          [
            86.8575888,
            28.00186
          ],
          [
            86.8578113,
            28.00179
          ],
          [
            86.8580561,
            28.0019052
          ],
          [
            86.8582552,
            28.0019164
          ],
          [
            86.8583664,
            28.001801
          ],
          [
            86.8587004,
            28.001719
          ],
          [
            86.8589289,
            28.0016993
          ],
          [
            86.8591204,
            28.0014811
          ],
          [
            86.8598865,
            28.0012863
          ],
          [
            86.8601684,
            28.001172
          ],
          [
            86.860357,
            28.001191
          ],
          [
            86.8605358,
            28.0011343
          ],
          [
            86.8607514,
            28.0010875
          ],
          [
            86.8610644,
            28.0011112
          ],
          [
            86.861255,
            28.0011746
          ],
          [
            86.8616054,
            28.0012718
          ],
          [
            86.8617924,
            28.0013391
          ],
          [
            86.8620543,
            28.0013776
          ],
          [
            86.8623127,
            28.0013183
          ],
          [
            86.8626174,
            28.00142
          ],
          [
            86.8629,
            28.0014548
          ],
          [
            86.863053,
            28.0014315
          ],
          [
            86.863591,
            28.001099
          ],
          [
            86.8636823,
            28.0007106
          ],
          [
            86.8646481,
            27.9995105
          ],
          [
            86.8644172,
            27.9998249
          ],
          [
            86.864959,
            27.9993323
          ],
          [
            86.8649214,
            27.9990386
          ],
          [
            86.865107,
            27.9988062
          ],
          [
            86.8673166,
            27.9987493
          ],
          [
            86.8674444,
            27.9984716
          ],
          [
            86.8676124,
            27.9984192
          ],
          [
            86.8675578,
            27.998302
          ],
          [
            86.8677881,
            27.9981523
          ],
          [
            86.8677297,
            27.9978225
          ],
          [
            86.8679577,
            27.9978651
          ],
          [
            86.8681421,
            27.997809
          ],
          [
            86.8683563,
            27.9976894
          ],
          [
            86.8684986,
            27.9977025
          ],
          [
            86.8685752,
            27.9976174
          ],
          [
            86.8685633,
            27.997517
          ],
          [
            86.8686855,
            27.997496
          ],
          [
            86.8688299,
            27.99744
          ],
          [
            86.8689097,
            27.9973483
          ],
          [
            86.8690249,
            27.997364
          ],
          [
            86.869074,
            27.9972675
          ],
          [
            86.8691893,
            27.9972958
          ],
          [
            86.8692517,
            27.9971915
          ],
          [
            86.8693735,
            27.9971686
          ],
          [
            86.8694665,
            27.9971418
          ],
          [
            86.8695548,
            27.9971835
          ],
          [
            86.8695857,
            27.9972681
          ],
          [
            86.8696539,
            27.9971992
          ],
          [
            86.8697515,
            27.9972598
          ],
          [
            86.8698113,
            27.9974149
          ],
          [
            86.8699396,
            27.9974394
          ],
          [
            86.8701869,
            27.9975423
          ],
          [
            86.870326,
            27.9975099
          ],
          [
            86.8704474,
            27.9975751
          ],
          [
            86.8711503,
            27.9976582
          ],
          [
            86.8711946,
            27.9977315
          ],
          [
            86.8714047,
            27.9977856
          ],
          [
            86.8714755,
            27.9977635
          ],
          [
            86.8715151,
            27.9976654
          ],
          [
            86.8715945,
            27.9975868
          ],
          [
            86.8716121,
            27.9974867
          ],
          [
            86.8716915,
            27.9974412
          ],
          [
            86.8718312,
            27.9973589
          ],
          [
            86.8718501,
            27.996986
          ],
          [
            86.8719039,
            27.9968205
          ],
          [
            86.8725721,
            27.9967543
          ],
          [
            86.8728275,
            27.9965685
          ],
          [
            86.8738964,
            27.9961315
          ],
          [
            86.873852,
            27.9959644
          ],
          [
            86.8740307,
            27.9958256
          ],
          [
            86.874158,
            27.995669
          ],
          [
            86.8743617,
            27.9954854
          ],
          [
            86.8746163,
            27.9954293
          ],
          [
            86.8747754,
            27.9954236
          ],
          [
            86.8748232,
            27.9953521
          ],
          [
            86.8749311,
            27.9953106
          ],
          [
            86.8749638,
            27.9951012
          ],
          [
            86.8751044,
            27.995114
          ],
          [
            86.8752007,
            27.9951541
          ],
          [
            86.8751866,
            27.9947276
          ],
          [
            86.8752299,
            27.9946526
          ],
          [
            86.8753367,
            27.9946413
          ],
          [
            86.8752556,
            27.9945877
          ],
          [
            86.8752409,
            27.9944951
          ],
          [
            86.8750655,
            27.9942982
          ],
          [
            86.8749093,
            27.9941503
          ],
          [
            86.8749105,
            27.9939476
          ],
          [
            86.8751114,
            27.9938927
          ],
          [
            86.8756012,
            27.9941748
          ],
          [
            86.876573,
            27.9944583
          ],
          [
            86.8767237,
            27.9930766
          ],
          [
            86.8770193,
            27.9929874
          ],
          [
            86.876766,
            27.9927212
          ],
          [
            86.877087,
            27.9925948
          ],
          [
            86.8770181,
            27.9924091
          ],
          [
            86.8771157,
            27.9921769
          ],
          [
            86.8770989,
            27.9918862
          ],
          [
            86.8773172,
            27.9918187
          ],
          [
            86.8774525,
            27.9916967
          ],
          [
            86.8775745,
            27.9916917
          ],
          [
            86.8781421,
            27.9916139
          ],
          [
            86.8782853,
            27.9913289
          ],
          [
            86.8785429,
            27.9913098
          ],
          [
            86.8787251,
            27.9912018
          ],
          [
            86.878941,
            27.9910446
          ],
          [
            86.8790015,
            27.990839
          ],
          [
            86.8790027,
            27.9906355
          ],
          [
            86.8786482,
            27.9902077
          ],
          [
            86.8783038,
            27.9898318
          ],
          [
            86.878445,
            27.9895941
          ],
          [
            86.8786553,
            27.9894654
          ],
          [
            86.8785378,
            27.9893134
          ],
          [
            86.8783276,
            27.9890421
          ],
          [
            86.8783624,
            27.9888395
          ],
          [
            86.8781998,
            27.9885945
          ],
          [
            86.877996,
            27.9883357
          ],
          [
            86.8777952,
            27.9882747
          ],
          [
            86.8776158,
            27.9880312
          ],
          [
            86.877891,
            27.9872664
          ],
          [
            86.8770844,
            27.9867771
          ],
          [
            86.8775231,
            27.9863909
          ],
          [
            86.876648,
            27.9855988
          ],
          [
            86.8768606,
            27.9852329
          ],
          [
            86.8763023,
            27.9849214
          ],
          [
            86.8765108,
            27.984595
          ],
          [
            86.8767051,
            27.9841267
          ],
          [
            86.8770906,
            27.983842
          ],
          [
            86.8773604,
            27.9835535
          ],
          [
            86.877528,
            27.9833768
          ],
          [
            86.878196,
            27.9830516
          ],
          [
            86.878486,
            27.9832067
          ],
          [
            86.8786897,
            27.9832627
          ],
          [
            86.8792426,
            27.9832001
          ],
          [
            86.8799021,
            27.9830364
          ],
          [
            86.8795975,
            27.9827292
          ],
          [
            86.8799692,
            27.9827094
          ],
          [
            86.8806023,
            27.9821743
          ],
          [
            86.8807504,
            27.9821551
          ],
          [
            86.8810486,
            27.9823169
          ],
          [
            86.8814347,
            27.9825946
          ],
          [
            86.8818806,
            27.9827105
          ],
          [
            86.8823325,
            27.9825198
          ],
          [
            86.8829513,
            27.9826847
          ],
          [
            86.8836159,
            27.9825892
          ],
          [
            86.8838723,
            27.9825833
          ],
          [
            86.8847423,
            27.9827471
          ],
          [
            86.8856388,
            27.9826107
          ],
          [
            86.8860991,
            27.9826097
          ],
          [
            86.8864609,
            27.9824462
          ],
          [
            86.8870068,
            27.9824953
          ],
          [
            86.8876901,
            27.9824183
          ],
          [
            86.8886261,
            27.982224
          ],
          [
            86.8899575,
            27.9823193
          ],
          [
            86.8903751,
            27.9821561
          ],
          [
            86.8908847,
            27.9821804
          ],
          [
            86.8915541,
            27.9821956
          ],
          [
            86.8918675,
            27.982075
          ],
          [
            86.892188,
            27.9821107
          ],
          [
            86.8924934,
            27.9819473
          ],
          [
            86.8931448,
            27.9819136
          ],
          [
            86.8940971,
            27.9819143
          ],
          [
            86.8943825,
            27.9818004
          ],
          [
            86.8948857,
            27.9817881
          ],
          [
            86.8952117,
            27.9817959
          ],
          [
            86.8954924,
            27.9817347
          ],
          [
            86.8957023,
            27.9817457
          ],
          [
            86.8958293,
            27.9817022
          ],
          [
            86.8963203,
            27.9814972
          ],
          [
            86.8966762,
            27.9813656
          ],
          [
            86.8969777,
            27.9813254
          ],
          [
            86.8973269,
            27.9812023
          ],
          [
            86.8977129,
            27.981103
          ],
          [
            86.8982879,
            27.9814326
          ],
          [
            86.8987186,
            27.9815114
          ],
          [
            86.8989603,
            27.9814184
          ],
          [
            86.8992292,
            27.9813496
          ],
          [
            86.8994728,
            27.9812213
          ],
          [
            86.8996681,
            27.9811577
          ],
          [
            86.8999493,
            27.981054
          ],
          [
            86.9002434,
            27.9808571
          ],
          [
            86.9010834,
            27.9803511
          ],
          [
            86.9015847,
            27.9801433
          ],
          [
            86.901886,
            27.9798717
          ],
          [
            86.9020622,
            27.9799043
          ],
          [
            86.9022953,
            27.9797247
          ],
          [
            86.9025072,
            27.979742
          ],
          [
            86.902812,
            27.980159
          ],
          [
            86.9035265,
            27.9800722
          ],
          [
            86.9041242,
            27.9798704
          ],
          [
            86.9044305,
            27.9796898
          ],
          [
            86.9047974,
            27.9796465
          ],
          [
            86.9050153,
            27.9795838
          ],
          [
            86.9050575,
            27.9794651
          ],
          [
            86.9049684,
            27.9793314
          ],
          [
            86.9049103,
            27.9792305
          ],
          [
            86.904949,
            27.9791003
          ],
          [
            86.9049979,
            27.9789478
          ],
          [
            86.9052541,
            27.9788758
          ],
          [
            86.9055357,
            27.9787306
          ],
          [
            86.9057975,
            27.9786342
          ],
          [
            86.9063087,
            27.9784875
          ],
          [
            86.9065132,
            27.9783874
          ],
          [
            86.9066722,
            27.9782389
          ],
          [
            86.9067677,
            27.9781769
          ],
          [
            86.9070236,
            27.9780821
          ],
          [
            86.9072038,
            27.9779826
          ],
          [
            86.9074623,
            27.9778006
          ],
          [
            86.9078756,
            27.97737
          ],
          [
            86.908085,
            27.9771005
          ],
          [
            86.9082935,
            27.9768399
          ],
          [
            86.9086283,
            27.9767381
          ],
          [
            86.9088497,
            27.9765788
          ],
          [
            86.908987,
            27.9764231
          ],
          [
            86.9089324,
            27.9762251
          ],
          [
            86.9089587,
            27.9760641
          ],
          [
            86.9091448,
            27.9757675
          ],
          [
            86.9093032,
            27.9755052
          ],
          [
            86.9094791,
            27.9753121
          ],
          [
            86.9098057,
            27.974786
          ],
          [
            86.9099724,
            27.9746044
          ],
          [
            86.9102604,
            27.9742421
          ],
          [
            86.9101664,
            27.973453
          ],
          [
            86.9102393,
            27.9733628
          ],
          [
            86.9105447,
            27.9731625
          ],
          [
            86.9107269,
            27.9730099
          ],
          [
            86.910909,
            27.9729374
          ],
          [
            86.9111551,
            27.9728526
          ],
          [
            86.9115268,
            27.9727908
          ],
          [
            86.9118838,
            27.9727121
          ],
          [
            86.9122559,
            27.97252
          ],
          [
            86.912552,
            27.9724033
          ],
          [
            86.9129697,
            27.9722331
          ],
          [
            86.9134005,
            27.9719779
          ],
          [
            86.9137239,
            27.9717017
          ],
          [
            86.9141204,
            27.9714592
          ],
          [
            86.9146091,
            27.9712334
          ],
          [
            86.9147762,
            27.9710307
          ],
          [
            86.9151099,
            27.9709191
          ],
          [
            86.9153627,
            27.9708008
          ],
          [
            86.9160765,
            27.9706061
          ],
          [
            86.9162267,
            27.9705019
          ],
          [
            86.9162643,
            27.970445
          ],
          [
            86.9162965,
            27.9703361
          ],
          [
            86.9164628,
            27.970175
          ],
          [
            86.9165555,
            27.9700716
          ],
          [
            86.9168663,
            27.9698825
          ],
          [
            86.9169724,
            27.9697249
          ],
          [
            86.9171656,
            27.9694386
          ],
          [
            86.9175744,
            27.9689959
          ],
          [
            86.9180028,
            27.9688566
          ],
          [
            86.9184389,
            27.9688634
          ],
          [
            86.9190298,
            27.9687981
          ],
          [
            86.9195745,
            27.9684235
          ],
          [
            86.9203857,
            27.9682651
          ],
          [
            86.9205982,
            27.9683428
          ],
          [
            86.9209414,
            27.9681282
          ],
          [
            86.9217896,
            27.9677397
          ],
          [
            86.9222134,
            27.9675739
          ],
          [
            86.9231039,
            27.967427
          ],
          [
            86.9236243,
            27.9671996
          ],
          [
            86.9250512,
            27.9678676
          ],
          [
            86.9256252,
            27.9679577
          ],
          [
            86.9263279,
            27.9680619
          ],
          [
            86.926403,
            27.9681803
          ],
          [
            86.9272165,
            27.9685314
          ],
          [
            86.9279928,
            27.9692046
          ],
          [
            86.9280247,
            27.9697193
          ],
          [
            86.9279612,
            27.9699428
          ],
          [
            86.9277098,
            27.970414
          ],
          [
            86.92761,
            27.9705988
          ],
          [
            86.9274812,
            27.9706716
          ],
          [
            86.9274216,
            27.9708125
          ],
          [
            86.927441,
            27.9710193
          ],
          [
            86.9277261,
            27.9712971
          ],
          [
            86.9281342,
            27.9717648
          ],
          [
            86.9283548,
            27.9719304
          ],
          [
            86.9285473,
            27.972071
          ],
          [
            86.9288492,
            27.9726955
          ],
          [
            86.9289377,
            27.972866
          ],
          [
            86.9290967,
            27.9730587
          ],
          [
            86.9294512,
            27.9732217
          ],
          [
            86.929805,
            27.9732853
          ],
          [
            86.9300686,
            27.9733777
          ],
          [
            86.9302356,
            27.9735533
          ],
          [
            86.9303288,
            27.9737868
          ],
          [
            86.9302957,
            27.9739629
          ],
          [
            86.9303242,
            27.9744362
          ],
          [
            86.9303731,
            27.974793
          ],
          [
            86.9304118,
            27.9750463
          ],
          [
            86.9304252,
            27.9753098
          ],
          [
            86.9304657,
            27.9755754
          ],
          [
            86.9305381,
            27.9757003
          ],
          [
            86.930503,
            27.9758295
          ],
          [
            86.930512,
            27.9759759
          ],
          [
            86.9304278,
            27.9760885
          ],
          [
            86.9304172,
            27.9763827
          ],
          [
            86.9303269,
            27.9766012
          ],
          [
            86.930332,
            27.9767002
          ],
          [
            86.9302491,
            27.9767608
          ],
          [
            86.9302118,
            27.9768682
          ],
          [
            86.9301076,
            27.976923
          ],
          [
            86.9301679,
            27.9771055
          ],
          [
            86.9301388,
            27.9773022
          ],
          [
            86.92999,
            27.9775607
          ],
          [
            86.9299677,
            27.9777227
          ],
          [
            86.9299404,
            27.9778918
          ],
          [
            86.929839,
            27.9781342
          ],
          [
            86.9297653,
            27.978381
          ],
          [
            86.9296605,
            27.9784204
          ],
          [
            86.9295654,
            27.9788401
          ],
          [
            86.9292623,
            27.9794559
          ],
          [
            86.9290829,
            27.9799181
          ],
          [
            86.9289926,
            27.9801615
          ],
          [
            86.9289324,
            27.9803901
          ],
          [
            86.9288975,
            27.980574
          ],
          [
            86.9289265,
            27.9816689
          ],
          [
            86.9290134,
            27.9818134
          ],
          [
            86.929051,
            27.9821179
          ],
          [
            86.9291402,
            27.9823007
          ],
          [
            86.9291362,
            27.9824014
          ],
          [
            86.9291121,
            27.9825127
          ],
          [
            86.928935,
            27.9827058
          ],
          [
            86.9288801,
            27.9827247
          ],
          [
            86.9287647,
            27.9827034
          ],
          [
            86.9286266,
            27.9827484
          ],
          [
            86.9283342,
            27.9828455
          ],
          [
            86.9275933,
            27.9831374
          ],
          [
            86.9260543,
            27.9844159
          ],
          [
            86.9254814,
            27.9856959
          ],
          [
            86.9255608,
            27.9864505
          ],
          [
            86.9254562,
            27.9866518
          ],
          [
            86.9253791,
            27.9868318
          ],
          [
            86.9253659,
            27.9870279
          ],
          [
            86.9252899,
            27.9871255
          ],
          [
            86.9252899,
            27.9871871
          ],
          [
            86.925308,
            27.9873073
          ],
          [
            86.9252893,
            27.9873683
          ],
          [
            86.9252233,
            27.9875623
          ],
          [
            86.9251971,
            27.9877989
          ],
          [
            86.9251976,
            27.9879943
          ],
          [
            86.9251977,
            27.9880189
          ],
          [
            86.92521,
            27.9880614
          ]
        ]
      },
      "id": "relation/17822898"
    }
  ]
}